start=new Date('2021-11-08T00:00:00.000Z').valueOf();
sats=[{"MEAN_ELEMENT_THEORY":"SGP4","DECAY_DATE":null,"SEMIMAJOR_AXIS":"6925.435","REF_FRAME":"TEME","CLASSIFICATION_TYPE":"U","LAUNCH_DATE":"2020-06-04","ARG_OF_PERICENTER":"80.9043","EPHEMERIS_TYPE":"0","ECCENTRICITY":"0.00011990","SITE":"AFETR","TLE_LINE1":"1 45677U 20035W   21311.54242620  .00003613  00000-0  26151-3 0  9993","INCLINATION":"53.0543","FILE":"3207836","OBJECT_NAME":"STARLINK-1392","ELEMENT_SET_NO":"999","GP_ID":"189213452","TIME_SYSTEM":"UTC","RA_OF_ASC_NODE":"333.6523","NORAD_CAT_ID":"45677","COUNTRY_CODE":"US","MEAN_MOTION":"15.06371807","PERIAPSIS":"546.470","TLE_LINE2":"2 45677  53.0543 333.6523 0001199  80.9043 279.2082 15.06371807 80118","MEAN_MOTION_DOT":"0.00003613","RCS_SIZE":"LARGE","OBJECT_ID":"2020-035W","PERIOD":"95.594","REV_AT_EPOCH":"8011","APOAPSIS":"548.130","OBJECT_TYPE":"PAYLOAD","MEAN_ANOMALY":"279.2082","CENTER_NAME":"EARTH","MEAN_MOTION_DDOT":"0.0000000000000","BSTAR":"0.00026151000000","EPOCH":"2021-11-07T13:01:05.623680"},{"SEMIMAJOR_AXIS":"6925.390","DECAY_DATE":null,"MEAN_ELEMENT_THEORY":"SGP4","ARG_OF_PERICENTER":"65.8828","EPHEMERIS_TYPE":"0","LAUNCH_DATE":"2020-06-04","CLASSIFICATION_TYPE":"U","REF_FRAME":"TEME","ECCENTRICITY":"0.00013190","TLE_LINE1":"1 45678U 20035X   21311.73502652 -.00000909  00000-0 -42161-4 0  9996","SITE":"AFETR","NORAD_CAT_ID":"45678","RA_OF_ASC_NODE":"322.7811","TIME_SYSTEM":"UTC","GP_ID":"189214203","ELEMENT_SET_NO":"999","FILE":"3207836","OBJECT_NAME":"STARLINK-1393","INCLINATION":"53.0542","TLE_LINE2":"2 45678  53.0542 322.7811 0001319  65.8828 294.2299 15.06386316 80268","PERIAPSIS":"546.342","MEAN_MOTION":"15.06386316","COUNTRY_CODE":"US","REV_AT_EPOCH":"8026","PERIOD":"95.593","OBJECT_ID":"2020-035X","RCS_SIZE":"LARGE","MEAN_MOTION_DOT":"-0.00000909","BSTAR":"-0.00004216100000","EPOCH":"2021-11-07T17:38:26.291328","CENTER_NAME":"EARTH","MEAN_MOTION_DDOT":"0.0000000000000","OBJECT_TYPE":"PAYLOAD","MEAN_ANOMALY":"294.2299","APOAPSIS":"548.169"},{"PERIOD":"95.593","REV_AT_EPOCH":"8028","RCS_SIZE":"LARGE","MEAN_MOTION_DOT":"-0.00001591","OBJECT_ID":"2020-035Y","MEAN_MOTION_DDOT":"0.0000000000000","CENTER_NAME":"EARTH","BSTAR":"-0.00008797900000","EPOCH":"2021-11-07T17:43:43.701600","MEAN_ANOMALY":"287.9237","OBJECT_TYPE":"PAYLOAD","APOAPSIS":"548.208","TIME_SYSTEM":"UTC","ELEMENT_SET_NO":"999","GP_ID":"189214448","NORAD_CAT_ID":"45679","RA_OF_ASC_NODE":"322.7666","FILE":"3207836","OBJECT_NAME":"STARLINK-1394","INCLINATION":"53.0547","TLE_LINE2":"2 45679  53.0547 322.7666 0001370  72.1901 287.9237 15.06385132 80280","MEAN_MOTION":"15.06385132","COUNTRY_CODE":"US","PERIAPSIS":"546.310","ECCENTRICITY":"0.00013700","TLE_LINE1":"1 45679U 20035Y   21311.73870025 -.00001591  00000-0 -87979-4 0  9993","SITE":"AFETR","DECAY_DATE":null,"SEMIMAJOR_AXIS":"6925.394","MEAN_ELEMENT_THEORY":"SGP4","LAUNCH_DATE":"2020-06-04","ARG_OF_PERICENTER":"72.1901","EPHEMERIS_TYPE":"0","REF_FRAME":"TEME","CLASSIFICATION_TYPE":"U"},{"OBJECT_NAME":"STARLINK-1395","FILE":"3207836","INCLINATION":"53.0554","NORAD_CAT_ID":"45680","RA_OF_ASC_NODE":"322.7365","TIME_SYSTEM":"UTC","GP_ID":"189213703","ELEMENT_SET_NO":"999","PERIAPSIS":"546.330","MEAN_MOTION":"15.06394421","COUNTRY_CODE":"US","TLE_LINE2":"2 45680  53.0554 322.7365 0001301  78.5747 281.5388 15.06394421 80275","OBJECT_ID":"2020-035Z","RCS_SIZE":"LARGE","MEAN_MOTION_DOT":"-0.00001036","REV_AT_EPOCH":"8027","PERIOD":"95.592","OBJECT_TYPE":"PAYLOAD","MEAN_ANOMALY":"281.5388","APOAPSIS":"548.132","BSTAR":"-0.00005066300000","EPOCH":"2021-11-07T17:54:21.210048","CENTER_NAME":"EARTH","MEAN_MOTION_DDOT":"0.0000000000000","MEAN_ELEMENT_THEORY":"SGP4","SEMIMAJOR_AXIS":"6925.366","DECAY_DATE":null,"CLASSIFICATION_TYPE":"U","REF_FRAME":"TEME","ARG_OF_PERICENTER":"78.5747","EPHEMERIS_TYPE":"0","LAUNCH_DATE":"2020-06-04","ECCENTRICITY":"0.00013010","SITE":"AFETR","TLE_LINE1":"1 45680U 20035Z   21311.74607882 -.00001036  00000-0 -50663-4 0  9999"},{"TLE_LINE1":"1 45681U 20035AA  21311.74239645  .00000377  00000-0  44228-4 0  9993","SITE":"AFETR","ECCENTRICITY":"0.00013660","ARG_OF_PERICENTER":"69.4967","EPHEMERIS_TYPE":"0","LAUNCH_DATE":"2020-06-04","CLASSIFICATION_TYPE":"U","REF_FRAME":"TEME","SEMIMAJOR_AXIS":"6925.393","DECAY_DATE":null,"MEAN_ELEMENT_THEORY":"SGP4","EPOCH":"2021-11-07T17:49:03.053280","BSTAR":"0.00004422800000","CENTER_NAME":"EARTH","MEAN_MOTION_DDOT":"0.0000000000000","OBJECT_TYPE":"PAYLOAD","APOAPSIS":"548.204","MEAN_ANOMALY":"290.6169","REV_AT_EPOCH":"8028","PERIOD":"95.593","OBJECT_ID":"2020-035AA","MEAN_MOTION_DOT":"0.00000377","RCS_SIZE":"LARGE","TLE_LINE2":"2 45681  53.0540 322.7458 0001366  69.4967 290.6169 15.06385517 80283","PERIAPSIS":"546.312","COUNTRY_CODE":"US","MEAN_MOTION":"15.06385517","RA_OF_ASC_NODE":"322.7458","NORAD_CAT_ID":"45681","GP_ID":"189213953","ELEMENT_SET_NO":"999","TIME_SYSTEM":"UTC","INCLINATION":"53.0540","FILE":"3207836","OBJECT_NAME":"STARLINK-1396"},{"INCLINATION":"53.0526","OBJECT_NAME":"STARLINK-1397","FILE":"3207836","ELEMENT_SET_NO":"999","GP_ID":"189214704","TIME_SYSTEM":"UTC","RA_OF_ASC_NODE":"322.7218","NORAD_CAT_ID":"45682","COUNTRY_CODE":"US","MEAN_MOTION":"15.06377053","PERIAPSIS":"546.570","TLE_LINE2":"2 45682  53.0526 322.7218 0001031  72.6398 287.4703 15.06377053 80278","MEAN_MOTION_DOT":"0.00015006","RCS_SIZE":"LARGE","OBJECT_ID":"2020-035AB","PERIOD":"95.594","REV_AT_EPOCH":"8027","OBJECT_TYPE":"PAYLOAD","MEAN_ANOMALY":"287.4703","APOAPSIS":"547.998","MEAN_MOTION_DDOT":"0.0000000000000","CENTER_NAME":"EARTH","EPOCH":"2021-11-07T17:59:40.743168","BSTAR":"0.00102480000000","MEAN_ELEMENT_THEORY":"SGP4","DECAY_DATE":null,"SEMIMAJOR_AXIS":"6925.419","REF_FRAME":"TEME","CLASSIFICATION_TYPE":"U","LAUNCH_DATE":"2020-06-04","EPHEMERIS_TYPE":"0","ARG_OF_PERICENTER":"72.6398","ECCENTRICITY":"0.00010310","SITE":"AFETR","TLE_LINE1":"1 45682U 20035AB  21311.74977712  .00015006  00000-0  10248-2 0  9996"},{"PERIAPSIS":"546.333","COUNTRY_CODE":"US","MEAN_MOTION":"15.06376915","TLE_LINE2":"2 45683  53.0551 322.8006 0001374  79.2827 280.8317 15.06376915 80288","INCLINATION":"53.0551","FILE":"3207836","OBJECT_NAME":"STARLINK-1399","RA_OF_ASC_NODE":"322.8006","NORAD_CAT_ID":"45683","ELEMENT_SET_NO":"999","GP_ID":"189214949","TIME_SYSTEM":"UTC","OBJECT_TYPE":"PAYLOAD","MEAN_ANOMALY":"280.8317","APOAPSIS":"548.236","EPOCH":"2021-11-07T17:33:07.897824","BSTAR":"0.00004268000000","MEAN_MOTION_DDOT":"0.0000000000000","CENTER_NAME":"EARTH","OBJECT_ID":"2020-035AC","MEAN_MOTION_DOT":"0.00000354","RCS_SIZE":"LARGE","REV_AT_EPOCH":"8028","PERIOD":"95.594","CLASSIFICATION_TYPE":"U","REF_FRAME":"TEME","EPHEMERIS_TYPE":"0","ARG_OF_PERICENTER":"79.2827","LAUNCH_DATE":"2020-06-04","MEAN_ELEMENT_THEORY":"SGP4","SEMIMAJOR_AXIS":"6925.419","DECAY_DATE":null,"SITE":"AFETR","TLE_LINE1":"1 45683U 20035AC  21311.73134141  .00000354  00000-0  42680-4 0  9994","ECCENTRICITY":"0.00013740"},{"REV_AT_EPOCH":"8029","PERIOD":"95.592","OBJECT_ID":"2020-035AD","MEAN_MOTION_DOT":"0.00005026","RCS_SIZE":"LARGE","EPOCH":"2021-11-07T18:36:47.896704","BSTAR":"0.00035604000000","CENTER_NAME":"EARTH","MEAN_MOTION_DDOT":"0.0000000000000","MEAN_ANOMALY":"287.0004","OBJECT_TYPE":"PAYLOAD","APOAPSIS":"548.176","RA_OF_ASC_NODE":"322.5999","NORAD_CAT_ID":"45684","GP_ID":"189213203","ELEMENT_SET_NO":"999","TIME_SYSTEM":"UTC","INCLINATION":"53.0538","OBJECT_NAME":"STARLINK-1401","FILE":"3207836","TLE_LINE2":"2 45684  53.0538 322.5999 0001391  73.1137 287.0004 15.06400319 80297","PERIAPSIS":"546.249","COUNTRY_CODE":"US","MEAN_MOTION":"15.06400319","ECCENTRICITY":"0.00013910","TLE_LINE1":"1 45684U 20035AD  21311.77555436  .00005026  00000-0  35604-3 0  9991","SITE":"AFETR","SEMIMAJOR_AXIS":"6925.348","DECAY_DATE":null,"MEAN_ELEMENT_THEORY":"SGP4","EPHEMERIS_TYPE":"0","ARG_OF_PERICENTER":"73.1137","LAUNCH_DATE":"2020-06-04","CLASSIFICATION_TYPE":"U","REF_FRAME":"TEME"},{"OBJECT_ID":"2020-035AE","MEAN_MOTION_DOT":"0.00006006","RCS_SIZE":"LARGE","REV_AT_EPOCH":"8029","PERIOD":"95.594","MEAN_ANOMALY":"285.7033","OBJECT_TYPE":"PAYLOAD","APOAPSIS":"548.321","EPOCH":"2021-11-07T18:31:30.504576","BSTAR":"0.00042202000000","MEAN_MOTION_DDOT":"0.0000000000000","CENTER_NAME":"EARTH","INCLINATION":"53.0544","OBJECT_NAME":"STARLINK-1402","FILE":"3207836","RA_OF_ASC_NODE":"322.6235","NORAD_CAT_ID":"45685","GP_ID":"189213453","ELEMENT_SET_NO":"999","TIME_SYSTEM":"UTC","PERIAPSIS":"546.267","COUNTRY_CODE":"US","MEAN_MOTION":"15.06373895","TLE_LINE2":"2 45685  53.0544 322.6235 0001483  74.4120 285.7033 15.06373895 80292","ECCENTRICITY":"0.00014830","SITE":"AFETR","TLE_LINE1":"1 45685U 20035AE  21311.77188084  .00006006  00000-0  42202-3 0  9994","MEAN_ELEMENT_THEORY":"SGP4","SEMIMAJOR_AXIS":"6925.429","DECAY_DATE":null,"CLASSIFICATION_TYPE":"U","REF_FRAME":"TEME","EPHEMERIS_TYPE":"0","ARG_OF_PERICENTER":"74.4120","LAUNCH_DATE":"2020-06-04"},{"MEAN_ELEMENT_THEORY":"SGP4","SEMIMAJOR_AXIS":"6925.414","DECAY_DATE":null,"CLASSIFICATION_TYPE":"U","REF_FRAME":"TEME","EPHEMERIS_TYPE":"0","ARG_OF_PERICENTER":"69.2735","LAUNCH_DATE":"2020-06-04","ECCENTRICITY":"0.00013490","SITE":"AFETR","TLE_LINE1":"1 45686U 20035AF  21311.76452764 -.00001788  00000-0 -10123-3 0  9994","INCLINATION":"53.0547","OBJECT_NAME":"STARLINK-1404","FILE":"3207836","RA_OF_ASC_NODE":"322.6517","NORAD_CAT_ID":"45686","ELEMENT_SET_NO":"999","GP_ID":"189214204","TIME_SYSTEM":"UTC","PERIAPSIS":"546.344","COUNTRY_CODE":"US","MEAN_MOTION":"15.06378802","TLE_LINE2":"2 45686  53.0547 322.6517 0001349  69.2735 290.8398 15.06378802 80298","OBJECT_ID":"2020-035AF","MEAN_MOTION_DOT":"-0.00001788","RCS_SIZE":"LARGE","REV_AT_EPOCH":"8029","PERIOD":"95.593","OBJECT_TYPE":"PAYLOAD","MEAN_ANOMALY":"290.8398","APOAPSIS":"548.213","EPOCH":"2021-11-07T18:20:55.188096","BSTAR":"-0.00010123000000","MEAN_MOTION_DDOT":"0.0000000000000","CENTER_NAME":"EARTH"}];
